IRIDIUM 57 [-]          
1 25273U 98019B   23335.63957512  .00000775  00000+0  26545-3 0  9993
2 25273  86.3982  21.2544 0002135  92.7381 267.4060 14.35003549343948
IRIDIUM 63 [-]          
1 25286U 98021B   23335.94529127  .00001057  00000+0  36070-3 0  9999
2 25286  86.3960 318.0680 0002041  86.3040 273.8390 14.35511974343014
IRIDIUM 69 [-]          
1 25319U 98026A   23335.54921076  .00000974  00000+0  30524-3 0  9991
2 25319  86.3971 333.2014 0004446  85.7622 274.4085 14.39691976341935
IRIDIUM 71 [-]          
1 25320U 98026B   23335.94110601  .00001076  00000+0  33563-3 0  9991
2 25320  86.3961 327.8504 0003884 116.7356 243.4241 14.40017273342501
IRIDIUM 73 [-]          
1 25344U 98032C   23335.94682519  .00001569  00000+0  39882-3 0  9993
2 25344  86.4399 285.5741 0003008  87.3383 272.8166 14.50168114348899
IRIDIUM 82 [-]          
1 25467U 98051A   23335.62322498  .00018987  00000+0  10880-2 0  9990
2 25467  86.3962  19.2898 0141644 225.8736 133.0780 15.04271433338589
IRIDIUM 2 [-]           
1 25527U 98066A   23335.75473202  .00066215  00000+0  13097-2 0  9997
2 25527  85.5182  69.0872 0004187  22.2331 337.9106 15.46846514376950
